{"type": "FeatureCollection", "features": [ {"type": "Feature", "properties": {"norad_id": 29795, "name": "FENGYUN 1C DEB", "group": "fengyun-1c-debris", "lat": -56.55437588281056, "lon": 130.9415913786359, "alt_km": 854.7602985120175, "timestamp": "2025-12-13T22:39:29.981366+00:00", "meta": {"OBJECT_NAME": "FENGYUN 1C DEB", "OBJECT_ID": "1999-025CM", "EPOCH": "2025-12-13T07:43:37.222176", "MEAN_MOTION": 13.92910072, "ECCENTRICITY": 0.01110384, "INCLINATION": 98.8704, "RA_OF_ASC_NODE": 116.6698, "ARG_OF_PERICENTER": 274.5974, "MEAN_ANOMALY": 149.2332, "EPHEMERIS_TYPE": 0, "CLASSIFICATION_TYPE": "U", "NORAD_CAT_ID": 29795, "ELEMENT_SET_NO": 999, "REV_AT_EPOCH": 96073, "BSTAR": 0.00026789805, "MEAN_MOTION_DOT": 3.23e-06, "MEAN_MOTION_DDOT": 0}, "tle": {"line1": "1 29795U 99025CM  25347.32195859  .00000323  00000+0  26790-3 0  9994", "line2": "2 29795  98.8704 116.6698 0111038 274.5974 149.2332 13.92910072960732"}}, "geometry": {"type": "Point", "coordinates": [130.9415913786359, -56.55437588281056]}}, {"type": "Feature", "properties": {"norad_id": 29796, "name": "FENGYUN 1C DEB", "group": "fengyun-1c-debris", "lat": 9.897341980043839, "lon": 38.2428745220221, "alt_km": 862.8477457742338, "timestamp": "2025-12-13T22:39:29.981383+00:00", "meta": {"OBJECT_NAME": "FENGYUN 1C DEB", "OBJECT_ID": "1999-025CN", "EPOCH": "2025-12-13T02:20:55.890240", "MEAN_MOTION": 14.12337087, "ECCENTRICITY": 0.00518757, "INCLINATION": 98.8649, "RA_OF_ASC_NODE": 38.9664, "ARG_OF_PERICENTER": 266.8586, "MEAN_ANOMALY": 122.5191, "EPHEMERIS_TYPE": 0, "CLASSIFICATION_TYPE": "U", "NORAD_CAT_ID": 29796, "ELEMENT_SET_NO": 999, "REV_AT_EPOCH": 97066, "BSTAR": 0.00091076447, "MEAN_MOTION_DOT": 1.655e-05, "MEAN_MOTION_DDOT": 0}, "tle": {"line1": "1 29796U 99025CN  25347.09786910  .00001655  00000+0  91076-3 0  9991", "line2": "2 29796  98.8649  38.9664 0051875 266.8586 122.5191 14.12337087970667"}}, "geometry": {"type": "Point", "coordinates": [38.2428745220221, 9.897341980043839]}}, {"type": "Feature", "properties": {"norad_id": 29798, "name": "FENGYUN 1C DEB", "group": "fengyun-1c-debris", "lat": -42.905882716103896, "lon": 60.62332185534034, "alt_km": 846.246635739426, "timestamp": "2025-12-13T22:39:29.981400+00:00", "meta": {"OBJECT_NAME": "FENGYUN 1C DEB", "OBJECT_ID": "1999-025CQ", "EPOCH": "2025-12-13T04:06:39.334176", "MEAN_MOTION": 13.99572952, "ECCENTRICITY": 0.01116268, "INCLINATION": 99.2953, "RA_OF_ASC_NODE": 51.0833, "ARG_OF_PERICENTER": 271.3012, "MEAN_ANOMALY": 112.5761, "EPHEMERIS_TYPE": 0, "CLASSIFICATION_TYPE": "U", "NORAD_CAT_ID": 29798, "ELEMENT_SET_NO": 999, "REV_AT_EPOCH": 95931, "BSTAR": 0.0021557516, "MEAN_MOTION_DOT": 3.275e-05, "MEAN_MOTION_DDOT": 0}, "tle": {"line1": "1 29798U 99025CQ  25347.17128859  .00003275  00000+0  21558-2 0  9991", "line2": "2 29798  99.2953  51.0833 0111626 271.3012 112.5761 13.99572952959319"}}, "geometry": {"type": "Point", "coordinates": [60.62332185534034, -42.905882716103896]}}, {"type": "Feature", "properties": {"norad_id": 29800, "name": "FENGYUN 1C DEB", "group": "fengyun-1c-debris", "lat": 61.57570749601157, "lon": -154.94614393240474, "alt_km": 919.4926382626436, "timestamp": "2025-12-13T22:39:29.981417+00:00", "meta": {"OBJECT_NAME": "FENGYUN 1C DEB", "OBJECT_ID": "1999-025CS", "EPOCH": "2025-12-12T23:54:54.544032", "MEAN_MOTION": 13.98566251, "ECCENTRICITY": 0.01337263, "INCLINATION": 98.286, "RA_OF_ASC_NODE": 8.5779, "ARG_OF_PERICENTER": 226.6056, "MEAN_ANOMALY": 163.5807, "EPHEMERIS_TYPE": 0, "CLASSIFICATION_TYPE": "U", "NORAD_CAT_ID": 29800, "ELEMENT_SET_NO": 999, "REV_AT_EPOCH": 95580, "BSTAR": 0.0027082943, "MEAN_MOTION_DOT": 4.155e-05, "MEAN_MOTION_DDOT": 0}, "tle": {"line1": "1 29800U 99025CS  25346.99646463  .00004155  00000+0  27083-2 0  9997", "line2": "2 29800  98.2860   8.5779 0133726 226.6056 163.5807 13.98566251955802"}}, "geometry": {"type": "Point", "coordinates": [-154.94614393240474, 61.57570749601157]}}, {"type": "Feature", "properties": {"norad_id": 29801, "name": "FENGYUN 1C DEB", "group": "fengyun-1c-debris", "lat": -23.909353148098567, "lon": 65.05598368529759, "alt_km": 739.9097829421662, "timestamp": "2025-12-13T22:39:29.981435+00:00", "meta": {"OBJECT_NAME": "FENGYUN 1C DEB", "OBJECT_ID": "1999-025CT", "EPOCH": "2025-12-13T07:10:57.050688", "MEAN_MOTION": 14.3589844, "ECCENTRICITY": 0.01028099, "INCLINATION": 98.7948, "RA_OF_ASC_NODE": 248.3339, "ARG_OF_PERICENTER": 265.7235, "MEAN_ANOMALY": 208.0352, "EPHEMERIS_TYPE": 0, "CLASSIFICATION_TYPE": "U", "NORAD_CAT_ID": 29801, "ELEMENT_SET_NO": 999, "REV_AT_EPOCH": 98949, "BSTAR": 0.00030408947, "MEAN_MOTION_DOT": 8.87e-06, "MEAN_MOTION_DDOT": 0}, "tle": {"line1": "1 29801U 99025CT  25347.29927142  .00000887  00000+0  30409-3 0  9993", "line2": "2 29801  98.7948 248.3339 0102809 265.7235 208.0352 14.35898440989494"}}, "geometry": {"type": "Point", "coordinates": [65.05598368529759, -23.909353148098567]}}, {"type": "Feature", "properties": {"norad_id": 29802, "name": "FENGYUN 1C DEB", "group": "fengyun-1c-debris", "lat": -57.33218458092043, "lon": 110.79373992914823, "alt_km": 670.579790991249, "timestamp": "2025-12-13T22:39:29.981452+00:00", "meta": {"OBJECT_NAME": "FENGYUN 1C DEB", "OBJECT_ID": "1999-025CU", "EPOCH": "2025-12-13T06:44:50.447616", "MEAN_MOTION": 14.62351363, "ECCENTRICITY": 0.00371797, "INCLINATION": 98.6189, "RA_OF_ASC_NODE": 96.4194, "ARG_OF_PERICENTER": 337.0716, "MEAN_ANOMALY": 76.7559, "EPHEMERIS_TYPE": 0, "CLASSIFICATION_TYPE": "U", "NORAD_CAT_ID": 29802, "ELEMENT_SET_NO": 999, "REV_AT_EPOCH": 98481, "BSTAR": 0.0048971, "MEAN_MOTION_DOT": 0.00025023, "MEAN_MOTION_DDOT": 0}, "tle": {"line1": "1 29802U 99025CU  25347.28113944  .00025023  00000+0  48971-2 0  9991", "line2": "2 29802  98.6189  96.4194 0037179 337.0716  76.7559 14.62351363984814"}}, "geometry": {"type": "Point", "coordinates": [110.79373992914823, -57.33218458092043]}}, {"type": "Feature", "properties": {"norad_id": 29804, "name": "FENGYUN 1C DEB", "group": "fengyun-1c-debris", "lat": 21.68249164294688, "lon": -7.4166473622338955, "alt_km": 870.0228592665107, "timestamp": "2025-12-13T22:39:29.981463+00:00", "meta": {"OBJECT_NAME": "FENGYUN 1C DEB", "OBJECT_ID": "1999-025CW", "EPOCH": "2025-12-13T00:37:04.267776", "MEAN_MOTION": 14.04322892, "ECCENTRICITY": 0.00971601, "INCLINATION": 98.8056, "RA_OF_ASC_NODE": 355.2263, "ARG_OF_PERICENTER": 301.041, "MEAN_ANOMALY": 119.6909, "EPHEMERIS_TYPE": 0, "CLASSIFICATION_TYPE": "U", "NORAD_CAT_ID": 29804, "ELEMENT_SET_NO": 999, "REV_AT_EPOCH": 96898, "BSTAR": 0.00015447832, "MEAN_MOTION_DOT": 2.13e-06, "MEAN_MOTION_DDOT": 0}, "tle": {"line1": "1 29804U 99025CW  25347.02574384  .00000213  00000+0  15448-3 0  9992", "line2": "2 29804  98.8056 355.2263 0097160 301.0410 119.6909 14.04322892968989"}}, "geometry": {"type": "Point", "coordinates": [-7.4166473622338955, 21.68249164294688]}}, {"type": "Feature", "properties": {"norad_id": 29805, "name": "FENGYUN 1C DEB", "group": "fengyun-1c-debris", "lat": 44.50617043707778, "lon": 29.77311335962406, "alt_km": 1124.6809224874723, "timestamp": "2025-12-13T22:39:29.981474+00:00", "meta": {"OBJECT_NAME": "FENGYUN 1C DEB", "OBJECT_ID": "1999-025CX", "EPOCH": "2025-12-13T03:11:16.291680", "MEAN_MOTION": 13.72657313, "ECCENTRICITY": 0.01880148, "INCLINATION": 99.4551, "RA_OF_ASC_NODE": 38.3993, "ARG_OF_PERICENTER": 228.7418, "MEAN_ANOMALY": 129.7403, "EPHEMERIS_TYPE": 0, "CLASSIFICATION_TYPE": "U", "NORAD_CAT_ID": 29805, "ELEMENT_SET_NO": 999, "REV_AT_EPOCH": 94708, "BSTAR": 0.00023761644, "MEAN_MOTION_DOT": 2.02e-06, "MEAN_MOTION_DDOT": 0}, "tle": {"line1": "1 29805U 99025CX  25347.13282745  .00000202  00000+0  23762-3 0  9998", "line2": "2 29805  99.4551  38.3993 0188014 228.7418 129.7403 13.72657313947080"}}, "geometry": {"type": "Point", "coordinates": [29.77311335962406, 44.50617043707778]}}, {"type": "Feature", "properties": {"norad_id": 29806, "name": "FENGYUN 1C DEB", "group": "fengyun-1c-debris", "lat": 61.13068810081441, "lon": -12.449734218035083, "alt_km": 866.3920801786362, "timestamp": "2025-12-13T22:39:29.981484+00:00", "meta": {"OBJECT_NAME": "FENGYUN 1C DEB", "OBJECT_ID": "1999-025CY", "EPOCH": "2025-12-13T07:09:45.477792", "MEAN_MOTION": 14.12008212, "ECCENTRICITY": 0.00276279, "INCLINATION": 98.7128, "RA_OF_ASC_NODE": 3.0722, "ARG_OF_PERICENTER": 250.2395, "MEAN_ANOMALY": 131.9725, "EPHEMERIS_TYPE": 0, "CLASSIFICATION_TYPE": "U", "NORAD_CAT_ID": 29806, "ELEMENT_SET_NO": 999, "REV_AT_EPOCH": 97147, "BSTAR": 0.00076176157, "MEAN_MOTION_DOT": 1.357e-05, "MEAN_MOTION_DDOT": 0}, "tle": {"line1": "1 29806U 99025CY  25347.29844303  .00001357  00000+0  76176-3 0  9999", "line2": "2 29806  98.7128   3.0722 0027627 250.2395 131.9725 14.12008212971473"}}, "geometry": {"type": "Point", "coordinates": [-12.449734218035083, 61.13068810081441]}}, {"type": "Feature", "properties": {"norad_id": 29807, "name": "FENGYUN 1C DEB", "group": "fengyun-1c-debris", "lat": 66.35460492449747, "lon": -166.86258553831755, "alt_km": 903.5638389391706, "timestamp": "2025-12-13T22:39:29.981494+00:00", "meta": {"OBJECT_NAME": "FENGYUN 1C DEB", "OBJECT_ID": "1999-025CZ", "EPOCH": "2025-12-12T23:58:04.541088", "MEAN_MOTION": 14.08658352, "ECCENTRICITY": 0.00794926, "INCLINATION": 98.7549, "RA_OF_ASC_NODE": 351.6123, "ARG_OF_PERICENTER": 331.2074, "MEAN_ANOMALY": 28.4721, "EPHEMERIS_TYPE": 0, "CLASSIFICATION_TYPE": "U", "NORAD_CAT_ID": 29807, "ELEMENT_SET_NO": 999, "REV_AT_EPOCH": 97098, "BSTAR": 0.0003896348, "MEAN_MOTION_DOT": 6.47e-06, "MEAN_MOTION_DDOT": 0}, "tle": {"line1": "1 29807U 99025CZ  25346.99866367  .00000647  00000+0  38963-3 0  9993", "line2": "2 29807  98.7549 351.6123 0079492 331.2074  28.4721 14.08658352970981"}}, "geometry": {"type": "Point", "coordinates": [-166.86258553831755, 66.35460492449747]}}]}